CCSDS_OMM_VERS = 2.0
CREATION_DATE  = 
ORIGINATOR     = 

OBJECT_NAME    = STARLINK-36056
OBJECT_ID      = 2025-304Q
CENTER_NAME    = EARTH
REF_FRAME      = TEME
TIME_SYSTEM    = UTC
MEAN_ELEMENT_THEORY = SGP/SGP4

EPOCH          = 2026-01-15T12:00:01.999296
MEAN_MOTION    = 15.42714865
ECCENTRICITY   = .0002772
INCLINATION    = 70.0005
RA_OF_ASC_NODE = 313.1992
ARG_OF_PERICENTER = 267.0660
MEAN_ANOMALY   = 15.1855

EPHEMERIS_TYPE = 0
CLASSIFICATION_TYPE = U
NORAD_CAT_ID   = 67206
ELEMENT_SET_NO = 999
REV_AT_EPOCH   = 586
BSTAR          = -.48787E-3
MEAN_MOTION_DOT = -.21455E-3
MEAN_MOTION_DDOT = 0

CCSDS_OMM_VERS = 2.0
CREATION_DATE  = 
ORIGINATOR     = 

OBJECT_NAME    = STARLINK-36225
OBJECT_ID      = 2025-304R
CENTER_NAME    = EARTH
REF_FRAME      = TEME
TIME_SYSTEM    = UTC
MEAN_ELEMENT_THEORY = SGP/SGP4

EPOCH          = 2026-01-14T06:43:19.077024
MEAN_MOTION    = 15.52217682
ECCENTRICITY   = .00029218
INCLINATION    = 70.0004
RA_OF_ASC_NODE = 316.4781
ARG_OF_PERICENTER = 294.7758
MEAN_ANOMALY   = 65.3125

EPHEMERIS_TYPE = 0
CLASSIFICATION_TYPE = U
NORAD_CAT_ID   = 67207
ELEMENT_SET_NO = 999
REV_AT_EPOCH   = 561
BSTAR          = -.26192985E-2
MEAN_MOTION_DOT = -.15647E-2
MEAN_MOTION_DDOT = 0

CCSDS_OMM_VERS = 2.0
CREATION_DATE  = 
ORIGINATOR     = 

OBJECT_NAME    = STARLINK-36265
OBJECT_ID      = 2025-304S
CENTER_NAME    = EARTH
REF_FRAME      = TEME
TIME_SYSTEM    = UTC
MEAN_ELEMENT_THEORY = SGP/SGP4

EPOCH          = 2026-01-15T11:42:21.006432
MEAN_MOTION    = 15.42726545
ECCENTRICITY   = .0003333
INCLINATION    = 70.0003
RA_OF_ASC_NODE = 313.4758
ARG_OF_PERICENTER = 269.3827
MEAN_ANOMALY   = 90.6973

EPHEMERIS_TYPE = 0
CLASSIFICATION_TYPE = U
NORAD_CAT_ID   = 67208
ELEMENT_SET_NO = 999
REV_AT_EPOCH   = 579
BSTAR          = .75156E-4
MEAN_MOTION_DOT = .3146E-4
MEAN_MOTION_DDOT = 0

CCSDS_OMM_VERS = 2.0
CREATION_DATE  = 
ORIGINATOR     = 

OBJECT_NAME    = STARLINK-36226
OBJECT_ID      = 2025-304T
CENTER_NAME    = EARTH
REF_FRAME      = TEME
TIME_SYSTEM    = UTC
MEAN_ELEMENT_THEORY = SGP/SGP4

EPOCH          = 2026-01-15T09:57:18.840096
MEAN_MOTION    = 15.42719004
ECCENTRICITY   = .0003325
INCLINATION    = 70.0005
RA_OF_ASC_NODE = 313.6211
ARG_OF_PERICENTER = 269.6184
MEAN_ANOMALY   = 90.4617

EPHEMERIS_TYPE = 0
CLASSIFICATION_TYPE = U
NORAD_CAT_ID   = 67209
ELEMENT_SET_NO = 999
REV_AT_EPOCH   = 578
BSTAR          = .14369E-3
MEAN_MOTION_DOT = .6151E-4
MEAN_MOTION_DDOT = 0

CCSDS_OMM_VERS = 2.0
CREATION_DATE  = 
ORIGINATOR     = 

OBJECT_NAME    = STARLINK-36173
OBJECT_ID      = 2025-304U
CENTER_NAME    = EARTH
REF_FRAME      = TEME
TIME_SYSTEM    = UTC
MEAN_ELEMENT_THEORY = SGP/SGP4

EPOCH          = 2026-01-15T09:45:22.853664
MEAN_MOTION    = 15.42739149
ECCENTRICITY   = .0002705
INCLINATION    = 70.0006
RA_OF_ASC_NODE = 313.5910
ARG_OF_PERICENTER = 265.3798
MEAN_ANOMALY   = 94.7075

EPHEMERIS_TYPE = 0
CLASSIFICATION_TYPE = U
NORAD_CAT_ID   = 67210
ELEMENT_SET_NO = 999
REV_AT_EPOCH   = 578
BSTAR          = .43764E-3
MEAN_MOTION_DOT = .19081E-3
MEAN_MOTION_DDOT = 0

CCSDS_OMM_VERS = 2.0
CREATION_DATE  = 
ORIGINATOR     = 

OBJECT_NAME    = STARLINK-36280
OBJECT_ID      = 2025-304V
CENTER_NAME    = EARTH
REF_FRAME      = TEME
TIME_SYSTEM    = UTC
MEAN_ELEMENT_THEORY = SGP/SGP4

EPOCH          = 2026-01-15T11:13:03.029088
MEAN_MOTION    = 15.42721764
ECCENTRICITY   = .0002491
INCLINATION    = 70.0004
RA_OF_ASC_NODE = 313.4010
ARG_OF_PERICENTER = 285.4073
MEAN_ANOMALY   = 74.6833

EPHEMERIS_TYPE = 0
CLASSIFICATION_TYPE = U
NORAD_CAT_ID   = 67211
ELEMENT_SET_NO = 999
REV_AT_EPOCH   = 579
BSTAR          = .16964E-3
MEAN_MOTION_DOT = .729E-4
MEAN_MOTION_DDOT = 0

CCSDS_OMM_VERS = 2.0
CREATION_DATE  = 
ORIGINATOR     = 

OBJECT_NAME    = STARLINK-36213
OBJECT_ID      = 2025-304W
CENTER_NAME    = EARTH
REF_FRAME      = TEME
TIME_SYSTEM    = UTC
MEAN_ELEMENT_THEORY = SGP/SGP4

EPOCH          = 2026-01-15T12:00:01.999296
MEAN_MOTION    = 15.42716096
ECCENTRICITY   = .0002955
INCLINATION    = 70.0004
RA_OF_ASC_NODE = 313.2880
ARG_OF_PERICENTER = 273.1721
MEAN_ANOMALY   = 290.0876

EPHEMERIS_TYPE = 0
CLASSIFICATION_TYPE = U
NORAD_CAT_ID   = 67212
ELEMENT_SET_NO = 999
REV_AT_EPOCH   = 589
BSTAR          = -.51914E-3
MEAN_MOTION_DOT = -.22818E-3
MEAN_MOTION_DDOT = 0

CCSDS_OMM_VERS = 2.0
CREATION_DATE  = 
ORIGINATOR     = 

OBJECT_NAME    = STARLINK-36199
OBJECT_ID      = 2025-304X
CENTER_NAME    = EARTH
REF_FRAME      = TEME
TIME_SYSTEM    = UTC
MEAN_ELEMENT_THEORY = SGP/SGP4

EPOCH          = 2026-01-15T12:00:01.999296
MEAN_MOTION    = 15.42716050
ECCENTRICITY   = .0003213
INCLINATION    = 70.0003
RA_OF_ASC_NODE = 313.2367
ARG_OF_PERICENTER = 273.5773
MEAN_ANOMALY   = 334.6815

EPHEMERIS_TYPE = 0
CLASSIFICATION_TYPE = U
NORAD_CAT_ID   = 67213
ELEMENT_SET_NO = 999
REV_AT_EPOCH   = 589
BSTAR          = -.51791E-3
MEAN_MOTION_DOT = -.22766E-3
MEAN_MOTION_DDOT = 0

CCSDS_OMM_VERS = 2.0
CREATION_DATE  = 
ORIGINATOR     = 

OBJECT_NAME    = STARLINK-36203
OBJECT_ID      = 2025-304Y
CENTER_NAME    = EARTH
REF_FRAME      = TEME
TIME_SYSTEM    = UTC
MEAN_ELEMENT_THEORY = SGP/SGP4

EPOCH          = 2026-01-15T12:00:01.999296
MEAN_MOTION    = 15.42750229
ECCENTRICITY   = .0002854
INCLINATION    = 70.0004
RA_OF_ASC_NODE = 313.2110
ARG_OF_PERICENTER = 281.3769
MEAN_ANOMALY   = 349.7645

EPHEMERIS_TYPE = 0
CLASSIFICATION_TYPE = U
NORAD_CAT_ID   = 67214
ELEMENT_SET_NO = 999
REV_AT_EPOCH   = 589
BSTAR          = -.47152E-3
MEAN_MOTION_DOT = -.20768E-3
MEAN_MOTION_DDOT = 0

CCSDS_OMM_VERS = 2.0
CREATION_DATE  = 
ORIGINATOR     = 

OBJECT_NAME    = STARLINK-36221
OBJECT_ID      = 2025-304Z
CENTER_NAME    = EARTH
REF_FRAME      = TEME
TIME_SYSTEM    = UTC
MEAN_ELEMENT_THEORY = SGP/SGP4

EPOCH          = 2026-01-15T12:00:01.999296
MEAN_MOTION    = 15.42719680
ECCENTRICITY   = .0002934
INCLINATION    = 70.0004
RA_OF_ASC_NODE = 313.1869
ARG_OF_PERICENTER = 280.1615
MEAN_ANOMALY   = 13.0765

EPHEMERIS_TYPE = 0
CLASSIFICATION_TYPE = U
NORAD_CAT_ID   = 67215
ELEMENT_SET_NO = 999
REV_AT_EPOCH   = 589
BSTAR          = -.44358E-3
MEAN_MOTION_DOT = -.19529E-3
MEAN_MOTION_DDOT = 0

CCSDS_OMM_VERS = 2.0
CREATION_DATE  = 
ORIGINATOR     = 

OBJECT_NAME    = STARLINK-36212
OBJECT_ID      = 2025-304AA
CENTER_NAME    = EARTH
REF_FRAME      = TEME
TIME_SYSTEM    = UTC
MEAN_ELEMENT_THEORY = SGP/SGP4

EPOCH          = 2026-01-15T12:00:01.999296
MEAN_MOTION    = 15.42688451
ECCENTRICITY   = .0002953
INCLINATION    = 70.0004
RA_OF_ASC_NODE = 313.1582
ARG_OF_PERICENTER = 268.7583
MEAN_ANOMALY   = 47.5254

EPHEMERIS_TYPE = 0
CLASSIFICATION_TYPE = U
NORAD_CAT_ID   = 67216
ELEMENT_SET_NO = 999
REV_AT_EPOCH   = 589
BSTAR          = -.26382E-4
MEAN_MOTION_DOT = -.1303E-4
MEAN_MOTION_DDOT = 0

CCSDS_OMM_VERS = 2.0
CREATION_DATE  = 
ORIGINATOR     = 

OBJECT_NAME    = STARLINK-36216
OBJECT_ID      = 2025-304AB
CENTER_NAME    = EARTH
REF_FRAME      = TEME
TIME_SYSTEM    = UTC
MEAN_ELEMENT_THEORY = SGP/SGP4

EPOCH          = 2026-01-15T12:00:01.999296
MEAN_MOTION    = 15.45607521
ECCENTRICITY   = .0003958
INCLINATION    = 70.0011
RA_OF_ASC_NODE = 313.1318
ARG_OF_PERICENTER = 279.1820
MEAN_ANOMALY   = 56.2415

EPHEMERIS_TYPE = 0
CLASSIFICATION_TYPE = U
NORAD_CAT_ID   = 67217
ELEMENT_SET_NO = 999
REV_AT_EPOCH   = 589
BSTAR          = -.56117E-1
MEAN_MOTION_DOT = -.2413196E-1
MEAN_MOTION_DDOT = 0

CCSDS_OMM_VERS = 2.0
CREATION_DATE  = 
ORIGINATOR     = 

OBJECT_NAME    = STARLINK-36211
OBJECT_ID      = 2025-304AC
CENTER_NAME    = EARTH
REF_FRAME      = TEME
TIME_SYSTEM    = UTC
MEAN_ELEMENT_THEORY = SGP/SGP4

EPOCH          = 2026-01-15T12:00:01.999296
MEAN_MOTION    = 15.48079397
ECCENTRICITY   = .0003423
INCLINATION    = 70.0007
RA_OF_ASC_NODE = 313.1178
ARG_OF_PERICENTER = 263.4794
MEAN_ANOMALY   = 86.4113

EPHEMERIS_TYPE = 0
CLASSIFICATION_TYPE = U
NORAD_CAT_ID   = 67218
ELEMENT_SET_NO = 999
REV_AT_EPOCH   = 586
BSTAR          = -.43839E-1
MEAN_MOTION_DOT = -.2053701E-1
MEAN_MOTION_DDOT = 0

CCSDS_OMM_VERS = 2.0
CREATION_DATE  = 
ORIGINATOR     = 

OBJECT_NAME    = DISKSAT C
OBJECT_ID      = 2025-305A
CENTER_NAME    = EARTH
REF_FRAME      = TEME
TIME_SYSTEM    = UTC
MEAN_ELEMENT_THEORY = SGP/SGP4

EPOCH          = 2026-01-15T10:44:47.655456
MEAN_MOTION    = 15.06412813
ECCENTRICITY   = .0001775
INCLINATION    = 45.0014
RA_OF_ASC_NODE = 172.3937
ARG_OF_PERICENTER = 32.1474
MEAN_ANOMALY   = 327.9509

EPHEMERIS_TYPE = 0
CLASSIFICATION_TYPE = U
NORAD_CAT_ID   = 67219
ELEMENT_SET_NO = 999
REV_AT_EPOCH   = 426
BSTAR          = .46136E-3
MEAN_MOTION_DOT = .6673E-4
MEAN_MOTION_DDOT = 0

CCSDS_OMM_VERS = 2.0
CREATION_DATE  = 
ORIGINATOR     = 

OBJECT_NAME    = DISKSAT B
OBJECT_ID      = 2025-305B
CENTER_NAME    = EARTH
REF_FRAME      = TEME
TIME_SYSTEM    = UTC
MEAN_ELEMENT_THEORY = SGP/SGP4

EPOCH          = 2026-01-14T18:51:13.988448
MEAN_MOTION    = 15.06332316
ECCENTRICITY   = .0001536
INCLINATION    = 45.0013
RA_OF_ASC_NODE = 175.9037
ARG_OF_PERICENTER = 33.0449
MEAN_ANOMALY   = 327.0521

EPHEMERIS_TYPE = 0
CLASSIFICATION_TYPE = U
NORAD_CAT_ID   = 67220
ELEMENT_SET_NO = 999
REV_AT_EPOCH   = 416
BSTAR          = .37045E-3
MEAN_MOTION_DOT = .5298E-4
MEAN_MOTION_DDOT = 0

